NORAD_CAT_ID,OBJECT_NAME,OBJECT_TYPE,EPOCH,MEAN_MOTION,ECCENTRICITY,INCLINATION,RA_OF_ASC_NODE,ARG_OF_PERICENTER,MEAN_ANOMALY,BSTAR,MEAN_MOTION_DOT,MEAN_MOTION_DDOT,TLE_LINE0,TLE_LINE1,TLE_LINE2,SEMIMAJOR_AXIS,PERIOD,APOGEE,PERIGEE,DECAYED
53008.0,STARLINK-4275,PAYLOAD,2024-04-17 20:07:31,15.08829716,0.0001285,53.2171,315.457,98.4688,261.645,0.00010591,1.398e-05,0.0,0 STARLINK-4275,1 53008U 22076Y   24108.83856141  .00001398  00000-0  10591-3 0  9994,2 53008  53.2171 315.4570 0001285  98.4688 261.6450 15.08829716 99022,6917.912,95.438,540.666,538.888,0.0
53008.0,STARLINK-4275,PAYLOAD,2024-04-17 23:18:18,15.08831229,0.0001213,53.2169,314.8641,82.3953,277.7176,0.00014717,2.055e-05,0.0,0 STARLINK-4275,1 53008U 22076Y   24108.97104285  .00002055  00000-0  14717-3 0  9999,2 53008  53.2169 314.8641 0001213  82.3953 277.7176 15.08831229 98573,6917.907,95.438,540.611,538.933,0.0
53008.0,STARLINK-4275,PAYLOAD,2024-04-18 19:58:18,15.08848477,0.0001254,53.2188,310.9949,81.6914,278.422,0.00027954,4.165e-05,0.0,0 STARLINK-4275,1 53008U 22076Y   24109.83215908  .00004165  00000-0  27954-3 0  9991,2 53008  53.2188 310.9949 0001254  81.6914 278.4220 15.08848477 99174,6917.854,95.437,540.587,538.852,0.0
53008.0,STARLINK-4275,PAYLOAD,2024-04-19 13:27:33,15.08842488,0.0001745,53.2205,307.7348,58.1254,301.9907,0.00029056,4.34e-05,0.0,0 STARLINK-4275,1 53008U 22076Y   24110.56080400  .00004340  00000-0  29056-3 0  9990,2 53008  53.2205 307.7348 0001745  58.1254 301.9907 15.08842488 99284,6917.873,95.437,540.945,538.531,0.0
53008.0,STARLINK-4275,PAYLOAD,2024-04-19 18:13:42,15.08846,0.0001274,53.2188,306.8383,80.3878,279.7258,0.00029205,4.364e-05,0.0,0 STARLINK-4275,1 53008U 22076Y   24110.75952269  .00004364  00000-0  29205-3 0  9994,2 53008  53.2188 306.8383 0001274  80.3878 279.7258 15.08846000 98845,6917.862,95.437,540.608,538.846,0.0
53008.0,STARLINK-4275,PAYLOAD,2024-04-20 13:18:20,15.08844266,0.0001317,53.2182,303.2719,84.5268,275.5875,0.00024776,3.658e-05,0.0,0 STARLINK-4275,1 53008U 22076Y   24111.55440163  .00003658  00000-0  24776-3 0  9991,2 53008  53.2182 303.2719 0001317  84.5268 275.5875 15.08844266 98964,6917.867,95.437,540.643,538.821,0.0
53008.0,STARLINK-4275,PAYLOAD,2024-04-20 18:04:29,15.08842988,0.0001297,53.2191,302.3799,90.1308,269.9833,7.8254e-05,9.58e-06,0.0,0 STARLINK-4275,1 53008U 22076Y   24111.75312061  .00000958  00000-0  78254-4 0  9999,2 53008  53.2191 302.3799 0001297  90.1308 269.9833 15.08842988 99463,6917.871,95.437,540.634,538.839,0.0
53008.0,STARLINK-4275,PAYLOAD,2024-04-21 13:09:07,15.08837804,0.000138,53.2187,298.811,89.1566,270.9584,-9.6681e-06,-4.42e-06,0.0,0 STARLINK-4275,1 53008U 22076Y   24112.54800368 -.00000442  00000-0 -96681-5 0  9994,2 53008  53.2187 298.8110 0001380  89.1566 270.9584 15.08837804 99119,6917.887,95.438,540.707,538.797,0.0
53008.0,STARLINK-4275,PAYLOAD,2024-04-21 17:55:16,15.08841324,0.0001341,53.2185,297.9172,85.4757,274.6388,1.6195e-05,-3e-07,0.0,0 STARLINK-4275,1 53008U 22076Y   24112.74672149 -.00000030  00000-0  16195-4 0  9993,2 53008  53.2185 297.9172 0001341  85.4757 274.6388 15.08841324 99141,6917.876,95.437,540.669,538.814,0.0
53008.0,STARLINK-4275,PAYLOAD,2024-04-21 22:41:25,15.08844721,0.0001513,53.2183,297.022,108.8281,251.2875,4.3936e-05,4.11e-06,0.0,0 STARLINK-4275,1 53008U 22076Y   24112.94543779  .00000411  00000-0  43936-4 0  9996,2 53008  53.2183 297.0220 0001513 108.8281 251.2875 15.08844721 99648,6917.866,95.437,540.778,538.684,0.0
53008.0,STARLINK-4275,PAYLOAD,2024-04-22 11:24:31,15.08840954,0.0001529,53.218,294.6436,114.1544,245.9608,6.8554e-05,8.03e-06,0.0,0 STARLINK-4275,1 53008U 22076Y   24113.47536006  .00000803  00000-0  68554-4 0  9998,2 53008  53.2180 294.6436 0001529 114.1544 245.9608 15.08840954 99251,6917.877,95.437,540.8,538.685,0.0
53008.0,STARLINK-4275,PAYLOAD,2024-04-22 19:21:26,15.08846325,0.0001334,53.2194,293.1581,67.0383,293.075,0.00015234,2.138e-05,0.0,0 STARLINK-4275,1 53008U 22076Y   24113.80655815  .00002138  00000-0  15234-3 0  9994,2 53008  53.2194 293.1581 0001334  67.0383 293.0750 15.08846325 99308,6917.861,95.437,540.649,538.803,0.0
53008.0,STARLINK-4275,PAYLOAD,2024-04-23 20:47:38,15.08836313,0.000142,53.2192,288.4023,86.8212,273.2942,1.8076e-05,0.0,0.0,0 STARLINK-4275,1 53008U 22076Y   24114.86641397 -.00000000  00000-0  18076-4 0  9996,2 53008  53.2192 288.4023 0001420  86.8212 273.2942 15.08836313 99938,6917.892,95.438,540.739,538.774,0.0
53008.0,STARLINK-4275,PAYLOAD,2024-04-24 11:06:06,15.08830016,0.000121,53.2178,285.7271,68.9828,291.1293,4.9976e-05,5.07e-06,0.0,0 STARLINK-4275,1 53008U 22076Y   24115.46257778  .00000507  00000-0  49976-4 0  9993,2 53008  53.2178 285.7271 0001210  68.9828 291.1293 15.08830016 99558,6917.911,95.438,540.613,538.939,0.0
53008.0,STARLINK-4275,PAYLOAD,2024-04-24 15:52:15,15.08835625,0.0001665,53.216,284.8381,55.7283,304.3866,0.00014574,2.032e-05,0.0,0 STARLINK-4275,1 53008U 22076Y   24115.66129377  .00002032  00000-0  14574-3 0  9998,2 53008  53.2160 284.8381 0001665  55.7283 304.3866 15.08835625 99581,6917.894,95.438,540.911,538.607,0.0
53008.0,STARLINK-4275,PAYLOAD,2024-04-25 10:56:53,15.08838692,0.0001344,53.2176,281.2603,121.406,238.7064,3.3945e-05,2.52e-06,0.0,0 STARLINK-4275,1 53008U 22076Y   24116.45617288  .00000252  00000-0  33945-4 0  9995,2 53008  53.2176 281.2603 0001344 121.4060 238.7064 15.08838692100179,6917.884,95.438,540.679,538.82,0.0
53008.0,STARLINK-4275,PAYLOAD,2024-04-25 17:18:25,15.08842119,0.0001277,53.2179,280.073,102.1503,257.9632,8.9425e-05,1.136e-05,0.0,0 STARLINK-4275,1 53008U 22076Y   24116.72113258  .00001136  00000-0  89425-4 0  9999,2 53008  53.2179 280.0730 0001277 102.1503 257.9632 15.08842119 99746,6917.874,95.437,540.622,538.855,0.0
53008.0,STARLINK-4275,PAYLOAD,2024-04-26 13:58:26,15.08847937,0.0001156,53.218,276.2117,83.6946,276.4177,7.4207e-05,8.94e-06,0.0,0 STARLINK-4275,1 53008U 22076Y   24117.58225163  .00000894  00000-0  74207-4 0  9995,2 53008  53.2180 276.2117 0001156  83.6946 276.4177 15.08847937 99871,6917.856,95.437,540.521,538.921,0.0
53008.0,STARLINK-4275,PAYLOAD,2024-04-26 17:09:12,15.08856089,0.0001376,53.2181,275.6156,93.9016,266.2133,0.00016114,2.279e-05,0.0,0 STARLINK-4275,1 53008U 22076Y   24117.71472572  .00002279  00000-0  16114-3 0  9999,2 53008  53.2181 275.6156 0001376  93.9016 266.2133 15.08856089100368,6917.831,95.437,540.648,538.744,0.0
53008.0,STARLINK-4275,PAYLOAD,2024-04-27 10:38:27,15.08841519,0.0001153,53.2179,272.3421,106.9147,253.1972,6.2597e-05,7.09e-06,0.0,0 STARLINK-4275,1 53008U 22076Y   24118.44337104  .00000709  00000-0  62597-4 0  9994,2 53008  53.2179 272.3421 0001153 106.9147 253.1972 15.08841519100477,6917.876,95.437,540.538,538.943,0.0
53008.0,STARLINK-4275,PAYLOAD,2024-04-27 13:49:13,15.08841483,0.000125,53.2174,271.7507,97.9124,262.201,0.00010367,1.362e-05,0.0,0 STARLINK-4275,1 53008U 22076Y   24118.57585136  .00001362  00000-0  10367-3 0  9991,2 53008  53.2174 271.7507 0001250  97.9124 262.2010 15.08841483100027,6917.876,95.437,540.606,538.876,0.0
53008.0,STARLINK-4275,PAYLOAD,2024-04-27 16:59:59,15.08846056,0.0001419,53.2185,271.1543,108.0014,252.1133,0.00013927,1.93e-05,0.0,0 STARLINK-4275,1 53008U 22076Y   24118.70832848  .00001930  00000-0  13927-3 0  9997,2 53008  53.2185 271.1543 0001419 108.0014 252.1133 15.08846056100049,6917.862,95.437,540.709,538.745,0.0
53008.0,STARLINK-4275,PAYLOAD,2024-04-28 10:29:14,15.08827389,0.0001311,53.2184,267.8836,100.0498,260.0642,-0.00025772,-4.386e-05,0.0,0 STARLINK-4275,1 53008U 22076Y   24119.43697840 -.00004386  00000-0 -25772-3 0  9990,2 53008  53.2184 267.8836 0001311 100.0498 260.0642 15.08827389100629,6917.919,95.438,540.691,538.877,0.0
53008.0,STARLINK-4275,PAYLOAD,2024-04-28 13:40:00,15.08833009,0.0001225,53.2183,267.2883,102.1692,257.9437,-0.00013241,-2.394e-05,0.0,0 STARLINK-4275,1 53008U 22076Y   24119.56945567 -.00002394  00000-0 -13241-3 0  9991,2 53008  53.2183 267.2883 0001225 102.1692 257.9437 15.08833009100170,6917.902,95.438,540.614,538.919,0.0
53008.0,STARLINK-4275,PAYLOAD,2024-04-28 16:50:47,15.08834566,0.0001163,53.2181,266.6937,89.6814,270.4311,-0.00013961,-2.509e-05,0.0,0 STARLINK-4275,1 53008U 22076Y   24119.70193560 -.00002509  00000-0 -13961-3 0  9992,2 53008  53.2181 266.6937 0001163  89.6814 270.4311 15.08834566100661,6917.897,95.438,540.567,538.957,0.0
53008.0,STARLINK-4275,PAYLOAD,2024-04-29 13:30:48,15.08834964,0.000117,53.2182,262.831,96.8043,263.3082,7.4214e-05,8.93e-06,0.0,0 STARLINK-4275,1 53008U 22076Y   24120.56306007  .00000893  00000-0  74214-4 0  9991,2 53008  53.2182 262.8310 0001170  96.8043 263.3082 15.08834964100328,6917.896,95.438,540.57,538.951,0.0
53008.0,STARLINK-4275,PAYLOAD,2024-04-29 16:41:34,15.08838336,0.0001227,53.218,262.2361,97.8359,262.2773,0.00012513,1.704e-05,0.0,0 STARLINK-4275,1 53008U 22076Y   24120.69553917  .00001704  00000-0  12513-3 0  9994,2 53008  53.2180 262.2361 0001227  97.8359 262.2773 15.08838336100344,6917.885,95.438,540.599,538.902,0.0
53008.0,STARLINK-4275,PAYLOAD,2024-04-30 02:13:53,15.08838409,0.0001222,53.2181,260.4518,103.9023,256.2105,0.00016234,2.297e-05,0.0,0 STARLINK-4275,1 53008U 22076Y   24121.09297996  .00002297  00000-0  16234-3 0  9993,2 53008  53.2181 260.4518 0001222 103.9023 256.2105 15.08838409100872,6917.885,95.438,540.596,538.905,0.0
53008.0,STARLINK-4275,PAYLOAD,2024-04-30 14:56:58,15.08841765,0.0001183,53.218,258.073,92.865,267.2477,0.00023162,3.4e-05,0.0,0 STARLINK-4275,1 53008U 22076Y   24121.62290039  .00003400  00000-0  23162-3 0  9998,2 53008  53.2180 258.0730 0001183  92.8650 267.2477 15.08841765100488,6917.875,95.437,540.558,538.922,0.0
53008.0,STARLINK-4275,PAYLOAD,2024-04-30 16:32:21,15.08845055,0.0001189,53.218,257.7757,92.0249,268.0879,0.00027702,4.124e-05,0.0,0 STARLINK-4275,1 53008U 22076Y   24121.68913900  .00004124  00000-0  27702-3 0  9991,2 53008  53.2180 257.7757 0001189  92.0249 268.0879 15.08845055100497,6917.865,95.437,540.552,538.907,0.0
